{"type": "FeatureCollection", "features": [ {"type": "Feature", "properties": {"norad_id": 44543, "name": "BEIDOU-3 M23 (C45)", "group": "beidou", "lat": -36.55936126276237, "lon": 157.30062695528568, "alt_km": 21526.370834386813, "timestamp": "2025-12-01T03:58:49.202118+00:00", "meta": {"OBJECT_NAME": "BEIDOU-3 M23 (C45)", "OBJECT_ID": "2019-061B", "EPOCH": "2025-11-30T16:39:35.371296", "MEAN_MOTION": 1.86229336, "ECCENTRICITY": 0.0006005, "INCLINATION": 54.3987, "RA_OF_ASC_NODE": 189.3914, "ARG_OF_PERICENTER": 20.8242, "MEAN_ANOMALY": 335.9718, "EPHEMERIS_TYPE": 0, "CLASSIFICATION_TYPE": "U", "NORAD_CAT_ID": 44543, "ELEMENT_SET_NO": 999, "REV_AT_EPOCH": 4209, "BSTAR": 0, "MEAN_MOTION_DOT": 1.15e-06, "MEAN_MOTION_DDOT": 0, "GROUP": "beidou"}, "tle": {"line1": "1 44543U 19061B   25334.69415939  .00000115  00000+0  00000+0 0  9995", "line2": "2 44543  54.3987 189.3914 0006005  20.8242 335.9718  1.86229336 42093"}}, "geometry": {"type": "Point", "coordinates": [157.30062695528568, -36.55936126276237]}}, {"type": "Feature", "properties": {"norad_id": 44709, "name": "BEIDOU-3 IGSO-3 (C40)", "group": "beidou", "lat": -30.4232670908165, "lon": -101.12223462429834, "alt_km": 35918.690062033354, "timestamp": "2025-12-01T03:58:49.202139+00:00", "meta": {"OBJECT_NAME": "BEIDOU-3 IGSO-3 (C40)", "OBJECT_ID": "2019-073A", "EPOCH": "2025-11-20T07:11:22.740000", "MEAN_MOTION": 1.00250097, "ECCENTRICITY": 0.0044538, "INCLINATION": 55.163, "RA_OF_ASC_NODE": 283.159, "ARG_OF_PERICENTER": 191.5856, "MEAN_ANOMALY": 168.2409, "EPHEMERIS_TYPE": 0, "CLASSIFICATION_TYPE": "U", "NORAD_CAT_ID": 44709, "ELEMENT_SET_NO": 999, "REV_AT_EPOCH": 2236, "BSTAR": 0, "MEAN_MOTION_DOT": -2.06e-06, "MEAN_MOTION_DDOT": 0, "GROUP": "beidou"}, "tle": {"line1": "1 44709U 19073A   25324.29956875 -.00000206  00000+0  00000+0 0  9998", "line2": "2 44709  55.1630 283.1590 0044538 191.5856 168.2409  1.00250097 22360"}}, "geometry": {"type": "Point", "coordinates": [-101.12223462429834, -30.4232670908165]}}, {"type": "Feature", "properties": {"norad_id": 44793, "name": "BEIDOU-3 M22 (C44)", "group": "beidou", "lat": 25.90486549638281, "lon": 106.20030962458719, "alt_km": 21533.727605075772, "timestamp": "2025-12-01T03:58:49.202157+00:00", "meta": {"OBJECT_NAME": "BEIDOU-3 M22 (C44)", "OBJECT_ID": "2019-078A", "EPOCH": "2025-11-30T09:49:22.120320", "MEAN_MOTION": 1.86231859, "ECCENTRICITY": 0.0005608, "INCLINATION": 54.1199, "RA_OF_ASC_NODE": 306.819, "ARG_OF_PERICENTER": 22.4317, "MEAN_ANOMALY": 337.5884, "EPHEMERIS_TYPE": 0, "CLASSIFICATION_TYPE": "U", "NORAD_CAT_ID": 44793, "ELEMENT_SET_NO": 999, "REV_AT_EPOCH": 4094, "BSTAR": 0, "MEAN_MOTION_DOT": -5.3e-07, "MEAN_MOTION_DDOT": 0, "GROUP": "beidou"}, "tle": {"line1": "1 44793U 19078A   25334.40928380 -.00000053  00000+0  00000+0 0  9990", "line2": "2 44793  54.1199 306.8190 0005608  22.4317 337.5884  1.86231859 40941"}}, "geometry": {"type": "Point", "coordinates": [106.20030962458719, 25.90486549638281]}}, {"type": "Feature", "properties": {"norad_id": 44794, "name": "BEIDOU-3 M21 (C43)", "group": "beidou", "lat": 41.66494213335403, "lon": -13.127100408504385, "alt_km": 21515.77311170751, "timestamp": "2025-12-01T03:58:49.202169+00:00", "meta": {"OBJECT_NAME": "BEIDOU-3 M21 (C43)", "OBJECT_ID": "2019-078B", "EPOCH": "2025-11-30T13:07:12.816768", "MEAN_MOTION": 1.86227555, "ECCENTRICITY": 0.0003851, "INCLINATION": 54.0927, "RA_OF_ASC_NODE": 306.7796, "ARG_OF_PERICENTER": 9.9738, "MEAN_ANOMALY": 350.0289, "EPHEMERIS_TYPE": 0, "CLASSIFICATION_TYPE": "U", "NORAD_CAT_ID": 44794, "ELEMENT_SET_NO": 999, "REV_AT_EPOCH": 4095, "BSTAR": 0, "MEAN_MOTION_DOT": -5.4e-07, "MEAN_MOTION_DDOT": 0, "GROUP": "beidou"}, "tle": {"line1": "1 44794U 19078B   25334.54667612 -.00000054  00000+0  00000+0 0  9995", "line2": "2 44794  54.0927 306.7796 0003851   9.9738 350.0289  1.86227555 40954"}}, "geometry": {"type": "Point", "coordinates": [-13.127100408504385, 41.66494213335403]}}, {"type": "Feature", "properties": {"norad_id": 44864, "name": "BEIDOU-3 M19 (C41)", "group": "beidou", "lat": -51.822055351021994, "lon": -52.992938562873235, "alt_km": 21493.39992181702, "timestamp": "2025-12-01T03:58:49.202182+00:00", "meta": {"OBJECT_NAME": "BEIDOU-3 M19 (C41)", "OBJECT_ID": "2019-090A", "EPOCH": "2025-11-30T07:50:16.471392", "MEAN_MOTION": 1.86231174, "ECCENTRICITY": 0.00174505, "INCLINATION": 56.3822, "RA_OF_ASC_NODE": 69.374, "ARG_OF_PERICENTER": 284.6281, "MEAN_ANOMALY": 123.4614, "EPHEMERIS_TYPE": 0, "CLASSIFICATION_TYPE": "U", "NORAD_CAT_ID": 44864, "ELEMENT_SET_NO": 999, "REV_AT_EPOCH": 4053, "BSTAR": 0, "MEAN_MOTION_DOT": -3.3e-07, "MEAN_MOTION_DDOT": 0, "GROUP": "beidou"}, "tle": {"line1": "1 44864U 19090A   25334.32657953 -.00000033  00000+0  00000+0 0  9997", "line2": "2 44864  56.3822  69.3740 0017450 284.6281 123.4614  1.86231174 40537"}}, "geometry": {"type": "Point", "coordinates": [-52.992938562873235, -51.822055351021994]}}, {"type": "Feature", "properties": {"norad_id": 44865, "name": "BEIDOU-3 M20 (C42)", "group": "beidou", "lat": -16.143122872384694, "lon": 58.291263961512115, "alt_km": 21500.556961401613, "timestamp": "2025-12-01T03:58:49.202194+00:00", "meta": {"OBJECT_NAME": "BEIDOU-3 M20 (C42)", "OBJECT_ID": "2019-090B", "EPOCH": "2025-11-30T17:30:55.303200", "MEAN_MOTION": 1.86231137, "ECCENTRICITY": 0.0014593, "INCLINATION": 56.3841, "RA_OF_ASC_NODE": 69.3949, "ARG_OF_PERICENTER": 297.5336, "MEAN_ANOMALY": 110.5134, "EPHEMERIS_TYPE": 0, "CLASSIFICATION_TYPE": "U", "NORAD_CAT_ID": 44865, "ELEMENT_SET_NO": 999, "REV_AT_EPOCH": 4052, "BSTAR": 0, "MEAN_MOTION_DOT": -3.6e-07, "MEAN_MOTION_DDOT": 0, "GROUP": "beidou"}, "tle": {"line1": "1 44865U 19090B   25334.72980675 -.00000036  00000+0  00000+0 0  9995", "line2": "2 44865  56.3841  69.3949 0014593 297.5336 110.5134  1.86231137 40521"}}, "geometry": {"type": "Point", "coordinates": [58.291263961512115, -16.143122872384694]}}, {"type": "Feature", "properties": {"norad_id": 45344, "name": "BEIDOU-3 G2 (C60)", "group": "beidou", "lat": 0.6760120489399365, "lon": -150.00152313701548, "alt_km": 35788.6724262834, "timestamp": "2025-12-01T03:58:49.202218+00:00", "meta": {"OBJECT_NAME": "BEIDOU-3 G2 (C60)", "OBJECT_ID": "2020-017A", "EPOCH": "2025-11-30T21:04:21.466272", "MEAN_MOTION": 1.00270725, "ECCENTRICITY": 0.0004412, "INCLINATION": 2.977, "RA_OF_ASC_NODE": 43.5121, "ARG_OF_PERICENTER": 264.0139, "MEAN_ANOMALY": 158.6326, "EPHEMERIS_TYPE": 0, "CLASSIFICATION_TYPE": "U", "NORAD_CAT_ID": 45344, "ELEMENT_SET_NO": 999, "REV_AT_EPOCH": 2127, "BSTAR": 0, "MEAN_MOTION_DOT": -1.21e-06, "MEAN_MOTION_DDOT": 0, "GROUP": "beidou"}, "tle": {"line1": "1 45344U 20017A   25334.87802623 -.00000121  00000+0  00000+0 0  9996", "line2": "2 45344   2.9770  43.5121 0004412 264.0139 158.6326  1.00270725 21276"}}, "geometry": {"type": "Point", "coordinates": [-150.00152313701548, 0.6760120489399365]}}, {"type": "Feature", "properties": {"norad_id": 45807, "name": "BEIDOU-3 G3 (C61)", "group": "beidou", "lat": 0.18491743205978103, "lon": -119.52745767853513, "alt_km": 35801.484582021345, "timestamp": "2025-12-01T03:58:49.202247+00:00", "meta": {"OBJECT_NAME": "BEIDOU-3 G3 (C61)", "OBJECT_ID": "2020-040A", "EPOCH": "2025-11-30T14:22:11.504064", "MEAN_MOTION": 1.00268305, "ECCENTRICITY": 0.00049384, "INCLINATION": 1.9592, "RA_OF_ASC_NODE": 66.4892, "ARG_OF_PERICENTER": 307.3549, "MEAN_ANOMALY": 21.9844, "EPHEMERIS_TYPE": 0, "CLASSIFICATION_TYPE": "U", "NORAD_CAT_ID": 45807, "ELEMENT_SET_NO": 999, "REV_AT_EPOCH": 2007, "BSTAR": 0, "MEAN_MOTION_DOT": -3.32e-06, "MEAN_MOTION_DDOT": 0, "GROUP": "beidou"}, "tle": {"line1": "1 45807U 20040A   25334.59874426 -.00000332  00000+0  00000+0 0  9999", "line2": "2 45807   1.9592  66.4892 0004938 307.3549  21.9844  1.00268305 20074"}}, "geometry": {"type": "Point", "coordinates": [-119.52745767853513, 0.18491743205978103]}}, {"type": "Feature", "properties": {"norad_id": 56564, "name": "BEIDOU-3 G4 (C62)", "group": "beidou", "lat": -0.16468299627377025, "lon": -69.92949985687116, "alt_km": 35792.768664177616, "timestamp": "2025-12-01T03:58:49.202675+00:00", "meta": {"OBJECT_NAME": "BEIDOU-3 G4 (C62)", "OBJECT_ID": "2023-066A", "EPOCH": "2025-11-30T19:44:29.116608", "MEAN_MOTION": 1.00271249, "ECCENTRICITY": 0.0003454, "INCLINATION": 0.8432, "RA_OF_ASC_NODE": 301.0056, "ARG_OF_PERICENTER": 232.1996, "MEAN_ANOMALY": 352.9397, "EPHEMERIS_TYPE": 0, "CLASSIFICATION_TYPE": "U", "NORAD_CAT_ID": 56564, "ELEMENT_SET_NO": 999, "REV_AT_EPOCH": 940, "BSTAR": 0, "MEAN_MOTION_DOT": -8.9e-07, "MEAN_MOTION_DDOT": 0, "GROUP": "beidou"}, "tle": {"line1": "1 56564U 23066A   25334.82255922 -.00000089  00000+0  00000+0 0  9991", "line2": "2 56564   0.8432 301.0056 0003454 232.1996 352.9397  1.00271249  9405"}}, "geometry": {"type": "Point", "coordinates": [-69.92949985687116, -0.16468299627377025]}}, {"type": "Feature", "properties": {"norad_id": 58654, "name": "BEIDOU-3 M28 (C50)", "group": "beidou", "lat": 2.169619140214633, "lon": 70.4774287036473, "alt_km": 21529.05203387271, "timestamp": "2025-12-01T03:58:49.202838+00:00", "meta": {"OBJECT_NAME": "BEIDOU-3 M28 (C50)", "OBJECT_ID": "2023-207A", "EPOCH": "2025-11-29T00:20:18.571776", "MEAN_MOTION": 1.86229638, "ECCENTRICITY": 0.00018783, "INCLINATION": 55.5726, "RA_OF_ASC_NODE": 69.0664, "ARG_OF_PERICENTER": 263.2463, "MEAN_ANOMALY": 96.7424, "EPHEMERIS_TYPE": 0, "CLASSIFICATION_TYPE": "U", "NORAD_CAT_ID": 58654, "ELEMENT_SET_NO": 999, "REV_AT_EPOCH": 1311, "BSTAR": 0, "MEAN_MOTION_DOT": -2.5e-07, "MEAN_MOTION_DDOT": 0, "GROUP": "beidou"}, "tle": {"line1": "1 58654U 23207A   25333.01410384 -.00000025  00000+0  00000+0 0  9995", "line2": "2 58654  55.5726  69.0664 0001878 263.2463  96.7424  1.86229638 13114"}}, "geometry": {"type": "Point", "coordinates": [70.4774287036473, 2.169619140214633]}}]}